[{"OBJECT_NAME":"STARLINK-4661","OBJECT_ID":"2022-107AJ","EPOCH":"2026-03-09T19:55:28.713216","MEAN_MOTION":15.08839677,"ECCENTRICITY":0.0001181,"INCLINATION":53.2159,"RA_OF_ASC_NODE":253.5716,"ARG_OF_PERICENTER":87.4091,"MEAN_ANOMALY":272.7036,"EPHEMERIS_TYPE":0,"CLASSIFICATION_TYPE":"U","NORAD_CAT_ID":53732,"ELEMENT_SET_NO":999,"REV_AT_EPOCH":19457,"BSTAR":4.4164919e-5,"MEAN_MOTION_DOT":4.15e-6,"MEAN_MOTION_DDOT":0},{"OBJECT_NAME":"OBJECT K","OBJECT_ID":"2017-042K","EPOCH":"2026-03-09T21:28:20.621568","MEAN_MOTION":15.07994228,"ECCENTRICITY":0.00097557,"INCLINATION":97.4104,"RA_OF_ASC_NODE":233.8721,"ARG_OF_PERICENTER":49.2775,"MEAN_ANOMALY":310.9299,"EPHEMERIS_TYPE":0,"CLASSIFICATION_TYPE":"U","NORAD_CAT_ID":42834,"ELEMENT_SET_NO":999,"REV_AT_EPOCH":47201,"BSTAR":0.00042776846,"MEAN_MOTION_DOT":6.528e-5,"MEAN_MOTION_DDOT":0}]
